#aV2020  8 22  0  0  0.00000000     288 DD+AD WGS84 FIT  NGA
## 2119 518400.00000000   300.00000000 59083 0.0000000000000
+   31     1  2  3  4  5  6  7  8  9 10 11 12 13 15 16 17 18
+         19 20 21 22 23 24 25 26 27 28 29 30 31 32  0  0  0
+          0  0  0  0  0  0  0  0  0  0  0  0  0  0  0  0  0
+          0  0  0  0  0  0  0  0  0  0  0  0  0  0  0  0  0
+          0  0  0  0  0  0  0  0  0  0  0  0  0  0  0  0  0
++         2  2  2  2  2  2  2  2  2  2  2  2  2  2  2  2  2
++         2  2  2  2  2  2  2  2  2  2  2  2  2  2  0  0  0
++         0  0  0  0  0  0  0  0  0  0  0  0  0  0  0  0  0
++         0  0  0  0  0  0  0  0  0  0  0  0  0  0  0  0  0
++         0  0  0  0  0  0  0  0  0  0  0  0  0  0  0  0  0
%c cc cc ccc ccc cccc cccc cccc cccc ccccc ccccc ccccc ccccc
%c cc cc ccc ccc cccc cccc cccc cccc ccccc ccccc ccccc ccccc
%f  0.0000000  0.000000000  0.00000000000  0.000000000000000
%f  0.0000000  0.000000000  0.00000000000  0.000000000000000
%i    0    0    0    0      0      0      0      0         0
%i    0    0    0    0      0      0      0      0         0
/*      NGA, ST. LOUIS,MO.                                  
/*   EPHEMERIS COMPUTED FROM 2 DAYS OF DATA                 
/*   EPOCHA v5 SMOOTHER                                     
/*   G1762 IERS2010 SATAF SATAPC                            
*  2020  8 22  5 10  0.00000000
P  1 -14018.358973 -13817.339353 -18225.833361     34.892940                    
V  1  22465.916276   1470.507909 -18315.760819      0.014739                    
P  2  -9202.172853  14401.310784  20967.261067   -505.646102                    
V  2 -25153.307625  -1618.602889 -10282.727199     -0.053837                    
P  3 -12661.297752 -23209.952759   3004.344645   -277.069848                    
V  3    717.634556  -4587.797517 -31513.797745     -0.109591                    
P  4  -6907.174822 -14921.877886  20860.599771   -127.275310                    
V  4  16844.804166 -20442.524336  -9083.993751     -0.043213                    
P  5  -1162.057206  21753.643783  14911.665743    -19.364897                    
V  5 -10596.362036 -16298.137534  22912.841371     -0.008393                    
P  6 -21933.409866   6810.476764  13423.911744   -318.149904                    
V  6 -16653.423107  -3405.600426 -25539.672309     -0.040056                    
P  7 -25711.216122  -6269.196878   4701.415067   -355.586110                    
V  7   5747.563326  -1931.691730  30513.403959     -0.083885                    
P  8   2361.678509 -21547.545878 -15159.234547    -45.291223                    
V  8  12723.723051 -14719.580665  23142.018016     -0.013478                    
P  9 -15852.170481  -3344.956657  20996.226695   -274.195850                    
V  9  14745.970122 -22398.369309   7530.773657     -0.059489                    
P 10  15501.036365  -1644.538835 -21447.005712   -434.192618                    
V 10  10919.233050  25119.047330   5700.283117     -0.101515                    
P 11  -3769.882167 -16144.584742 -21254.993248   -185.936172                    
V 11  24366.292227  -9276.858714   2438.456052      0.106069                    
P 12  10294.943005  24482.731356   1862.951834     77.403040                    
V 12  -1140.245663   3223.648203 -31901.164416     -0.049686                    
P 13 -11439.812198  21919.900931  -9678.874288     38.058365                    
V 13 -10037.568351   7226.448310  28693.608193      0.034906                    
P 15   1067.184952  21580.678662 -15527.258015   -208.959461                    
V 15 -12005.809038  15462.959767  21494.441002      0.025943                    
P 16   1256.764499 -22879.294968  12813.376397   -198.885627                    
V 16   7578.996541  15125.873058  26263.824670     -0.049580                    
P 17 -20099.430776  12658.527322 -11415.005664    314.624588                    
V 17   8060.046030 -12952.103548 -27581.092869      0.055671                    
P 18  25691.841756   5775.183472   3622.884039    274.956264                    
V 18  -4903.006817   2036.439879  31368.761979      0.079169                    
P 19 -19855.063957  16843.913384  -5378.486364   -115.218376                    
V 19   2738.887927  -6196.545892 -31293.530873      0.050678                    
P 20  19480.496206   9492.107661 -15591.800797    526.970171                    
V 20   8424.318549  17889.715622  21285.663041     -0.001008                    
P 21  16516.241756 -11244.764110 -16619.550797     38.439610                    
V 21  22575.988471   3043.484840  19816.788709      0.043298                    
P 22  -9604.936573 -24354.445700  -4733.119938   -761.963421                    
V 22   6147.022899   3730.285375 -30226.653709      0.034465                    
P 23  17821.367484   8421.434018 -17835.774580     46.665879                    
V 23   8298.084288  21064.479192  18259.440547      0.107705                    
P 24  11702.951776  14602.022594 -19185.050615    -17.488154                    
V 24 -23937.090520    465.338402 -14024.995959     -0.004965                    
P 25  16450.165474  17542.223877  11322.184122     38.562142                    
V 25   3986.527266  14255.184286 -27053.413087      0.049743                    
P 26  10054.058109 -13271.727465  20614.619647    265.542954                    
V 26  12587.584638  23179.637836   8997.276906      0.065875                    
P 27  11523.918593 -22981.037868  -6069.302695   -377.057565                    
V 27   6407.608940  -4719.042423  31098.007243     -0.092185                    
P 28 -14506.272402   2517.063494 -21518.135912    687.017194                    
V 28  -8961.040337 -27258.723983   2923.117617     -0.039256                    
P 29  12678.087630   7591.324843  22030.836415   -178.055709                    
V 29 -17816.684665  21599.808234   2761.657036     -0.082830                    
P 30 -25986.436675    875.289498  -5905.660621   -286.975384                    
V 30  -7044.421305  -4216.882630  29891.017369     -0.073594                    
P 31  21087.291070  -7612.823250  14540.493551    -63.746507                    
V 31  17978.886313   4237.957927 -23327.624121     -0.024330                    
P 32  19540.707461 -13892.428060 -11178.289383    336.032178                    
V 32  -6179.642848  13256.428279 -27217.092697      0.052921                    
EOF
